NORAD_CAT_ID,OBJECT_NAME,OBJECT_TYPE,EPOCH,MEAN_MOTION,ECCENTRICITY,INCLINATION,RA_OF_ASC_NODE,ARG_OF_PERICENTER,MEAN_ANOMALY,BSTAR,MEAN_MOTION_DOT,MEAN_MOTION_DDOT,TLE_LINE0,TLE_LINE1,TLE_LINE2,SEMIMAJOR_AXIS,PERIOD,APOGEE,PERIGEE,DECAYED
55758.0,STARLINK-5072,PAYLOAD,2024-06-09 03:15:05,14.983397,0.0002884,70.0015,54.3702,270.4307,89.6522,0.00022142,2.551e-05,0.0,0 STARLINK-5072,1 55758U 23028T   24161.13547959  .00002551  00000-0  22142-3 0  9999,2 55758  70.0015  54.3702 0002884 270.4307  89.6522 14.98339700 70396,6950.163,96.106,574.032,570.023,0.0
55758.0,STARLINK-5072,PAYLOAD,2024-06-09 20:52:34,14.98333671,0.0002493,70.0032,52.5206,264.72,95.3675,-8.097e-06,-1.9e-06,0.0,0 STARLINK-5072,1 55758U 23028T   24161.86984337 -.00000190  00000-0 -80970-5 0  9998,2 55758  70.0032  52.5206 0002493 264.7200  95.3675 14.98333671 70505,6950.182,96.107,573.779,570.314,0.0
55758.0,STARLINK-5072,PAYLOAD,2024-06-09 22:28:42,14.98332816,0.0002448,70.0032,52.3523,264.6658,95.4222,-1.8613e-05,-3.15e-06,0.0,0 STARLINK-5072,1 55758U 23028T   24161.93660412 -.00000315  00000-0 -18613-4 0  9994,2 55758  70.0032  52.3523 0002448 264.6658  95.4222 14.98332816 70511,6950.184,96.107,573.751,570.348,0.0
55758.0,STARLINK-5072,PAYLOAD,2024-06-10 09:41:37,14.98369353,0.0002672,70.0017,51.1739,274.2601,85.8253,-0.00073172,-8.821e-05,0.0,0 STARLINK-5072,1 55758U 23028T   24162.40390930 -.00008821  00000-0 -73172-3 0  9992,2 55758  70.0017  51.1739 0002672 274.2601  85.8253 14.98369353 70584,6950.071,96.104,573.793,570.079,0.0
55758.0,STARLINK-5072,PAYLOAD,2024-06-10 20:54:35,14.98338227,0.000276,70.0005,49.9954,269.4026,90.6816,-9.0468e-06,-2.01e-06,0.0,0 STARLINK-5072,1 55758U 23028T   24162.87124328 -.00000201  00000-0 -90468-5 0  9992,2 55758  70.0005  49.9954 0002760 269.4026  90.6816 14.98338227 70653,6950.167,96.106,573.951,570.114,0.0
55758.0,STARLINK-5072,PAYLOAD,2024-06-10 22:30:43,14.98353498,0.0002826,70.0007,49.8274,270.4522,89.6313,-0.00025744,-3.165e-05,0.0,0 STARLINK-5072,1 55758U 23028T   24162.93799880 -.00003165  00000-0 -25744-3 0  9995,2 55758  70.0007  49.8274 0002826 270.4522  89.6313 14.98353498 70663,6950.12,96.105,573.949,570.021,0.0
55758.0,STARLINK-5072,PAYLOAD,2024-06-11 01:42:59,14.98351447,0.0002839,70.0007,49.4895,271.2421,88.8413,-0.00015236,-1.911e-05,0.0,0 STARLINK-5072,1 55758U 23028T   24163.07151639 -.00001911  00000-0 -15236-3 0  9997,2 55758  70.0007  49.4895 0002839 271.2421  88.8413 14.98351447 70685,6950.127,96.106,573.965,570.018,0.0
55758.0,STARLINK-5072,PAYLOAD,2024-06-11 09:43:39,14.98342547,0.0002782,70.0013,48.6487,270.8314,89.2527,-0.00010636,-1.362e-05,0.0,0 STARLINK-5072,1 55758U 23028T   24163.40531902 -.00001362  00000-0 -10636-3 0  9998,2 55758  70.0013  48.6487 0002782 270.8314  89.2527 14.98342547 70731,6950.154,96.106,573.953,570.086,0.0
55758.0,STARLINK-5072,PAYLOAD,2024-06-12 01:45:00,14.98334166,0.0002833,70.0005,46.9663,267.7775,92.306,0.00013505,1.519e-05,0.0,0 STARLINK-5072,1 55758U 23028T   24164.07292086  .00001519  00000-0  13505-3 0  9999,2 55758  70.0005  46.9663 0002833 267.7775  92.3060 14.98334166 70838,6950.18,96.107,574.014,570.076,0.0
55758.0,STARLINK-5072,PAYLOAD,2024-06-12 20:58:37,14.98327441,0.0002933,70.0001,44.9451,269.4479,90.6344,5.4003e-05,5.51e-06,0.0,0 STARLINK-5072,1 55758U 23028T   24164.87404598  .00000551  00000-0  54003-4 0  9994,2 55758  70.0001  44.9451 0002933 269.4479  90.6344 14.98327441 70955,6950.201,96.107,574.104,570.027,0.0
55758.0,STARLINK-5072,PAYLOAD,2024-06-12 22:34:45,14.98327814,0.0002857,70.0001,44.7767,266.4574,93.6258,3.2403e-05,2.94e-06,0.0,0 STARLINK-5072,1 55758U 23028T   24164.94080610  .00000294  00000-0  32403-4 0  9991,2 55758  70.0001  44.7767 0002857 266.4574  93.6258 14.98327814 70963,6950.2,96.107,574.05,570.079,0.0
55758.0,STARLINK-5072,PAYLOAD,2024-06-13 01:47:01,14.98329907,0.0002906,70.0002,44.4401,268.1324,91.9503,3.7089e-05,3.5e-06,0.0,0 STARLINK-5072,1 55758U 23028T   24165.07432453  .00000350  00000-0  37089-4 0  9990,2 55758  70.0002  44.4401 0002906 268.1324  91.9503 14.98329907 70984,6950.193,96.107,574.078,570.038,0.0
55758.0,STARLINK-5072,PAYLOAD,2024-06-13 22:36:46,14.9832981,0.0002954,70.0003,42.2512,267.7208,92.3613,0.00011755,1.31e-05,0.0,0 STARLINK-5072,1 55758U 23028T   24165.94220180  .00001310  00000-0  11755-3 0  9996,2 55758  70.0003  42.2512 0002954 267.7208  92.3613 14.98329810 71119,6950.193,96.107,574.112,570.005,0.0
55758.0,STARLINK-5072,PAYLOAD,2024-06-14 01:49:01,14.98337253,0.0003035,70.0001,41.9152,269.589,90.4921,7.6852e-05,8.24e-06,0.0,0 STARLINK-5072,1 55758U 23028T   24166.07571737  .00000824  00000-0  76852-4 0  9997,2 55758  70.0001  41.9152 0003035 269.5890  90.4921 14.98337253 71134,6950.17,96.107,574.145,569.926,0.0
55758.0,STARLINK-5072,PAYLOAD,2024-06-14 22:38:47,14.98331273,0.0002882,70.0005,39.728,266.903,93.18,0.00010359,1.143e-05,0.0,0 STARLINK-5072,1 55758U 23028T   24166.94360043  .00001143  00000-0  10359-3 0  9993,2 55758  70.0005  39.7280 0002882 266.9030  93.1800 14.98331273 71267,6950.189,96.107,574.057,570.051,0.0
55758.0,STARLINK-5072,PAYLOAD,2024-06-15 08:15:35,14.9833045,0.0002801,70.0008,38.7181,266.0595,94.0244,5.4577e-05,5.58e-06,0.0,0 STARLINK-5072,1 55758U 23028T   24167.34416197  .00000558  00000-0  54577-4 0  9990,2 55758  70.0008  38.7181 0002801 266.0595  94.0244 14.98330450 71322,6950.191,96.107,574.003,570.11,0.0
55758.0,STARLINK-5072,PAYLOAD,2024-06-15 22:40:47,14.98335306,0.0002815,70.0006,37.2029,268.0617,92.022,5.306e-05,5.4e-06,0.0,0 STARLINK-5072,1 55758U 23028T   24167.94499770  .00000540  00000-0  53060-4 0  9991,2 55758  70.0006  37.2029 0002815 268.0617  92.0220 14.98335306 71414,6950.176,96.107,573.998,570.085,0.0
55758.0,STARLINK-5072,PAYLOAD,2024-06-16 08:17:36,14.98332457,0.0002787,70.0006,36.1927,268.6216,91.4624,4.1977e-05,4.08e-06,0.0,0 STARLINK-5072,1 55758U 23028T   24168.34555894  .00000408  00000-0  41977-4 0  9993,2 55758  70.0006  36.1927 0002787 268.6216  91.4624 14.98332457 71479,6950.185,96.107,573.987,570.113,0.0
55758.0,STARLINK-5072,PAYLOAD,2024-06-16 22:42:48,14.98330421,0.0002792,70.0005,34.6777,266.6837,93.4003,1.1882e-05,4.9e-07,0.0,0 STARLINK-5072,1 55758U 23028T   24168.94640021  .00000049  00000-0  11882-4 0  9999,2 55758  70.0005  34.6777 0002792 266.6837  93.4003 14.98330421 71569,6950.192,96.107,573.997,570.116,0.0
55758.0,STARLINK-5072,PAYLOAD,2024-06-17 21:08:42,14.9832739,0.0002893,70.0002,32.3211,269.1411,90.9417,-3.0929e-05,-4.62e-06,0.0,0 STARLINK-5072,1 55758U 23028T   24169.88104374 -.00000462  00000-0 -30929-4 0  9993,2 55758  70.0002  32.3211 0002893 269.1411  90.9417 14.98327390 71700,6950.201,96.107,574.077,570.055,0.0
55758.0,STARLINK-5072,PAYLOAD,2024-06-17 22:44:50,14.98327539,0.0002891,70.0002,32.1527,269.1675,90.9153,-2.9124e-05,-4.4e-06,0.0,0 STARLINK-5072,1 55758U 23028T   24169.94780366 -.00000440  00000-0 -29124-4 0  9992,2 55758  70.0002  32.1527 0002891 269.1675  90.9153 14.98327539 71711,6950.201,96.107,574.075,570.056,0.0
55758.0,STARLINK-5072,PAYLOAD,2024-06-18 08:21:38,14.98333262,0.0002933,70.0001,31.1425,269.4871,90.5952,4.4548e-05,4.39e-06,0.0,0 STARLINK-5072,1 55758U 23028T   24170.34835817  .00000439  00000-0  44548-4 0  9993,2 55758  70.0001  31.1425 0002933 269.4871  90.5952 14.98333262 71773,6950.183,96.107,574.086,570.009,0.0
55758.0,STARLINK-5072,PAYLOAD,2024-06-18 14:46:09,14.9833916,0.0003154,69.9995,30.4678,269.8723,90.2074,0.00020975,2.411e-05,0.0,0 STARLINK-5072,1 55758U 23028T   24170.61538781  .00002411  00000-0  20975-3 0  9992,2 55758  69.9995  30.4678 0003154 269.8723  90.2074 14.98339160 71810,6950.165,96.106,574.222,569.837,0.0
55758.0,STARLINK-5072,PAYLOAD,2024-06-18 21:10:41,14.9834879,0.0003194,69.9995,29.7947,269.1143,90.965,0.00022748,2.624e-05,0.0,0 STARLINK-5072,1 55758U 23028T   24170.88241977  .00002624  00000-0  22748-3 0  9995,2 55758  69.9995  29.7947 0003194 269.1143  90.9650 14.98348790 71853,6950.135,96.106,574.22,569.78,0.0
55758.0,STARLINK-5072,PAYLOAD,2024-06-19 08:23:38,14.98332171,0.0002632,70.0007,28.6142,270.1679,89.9179,7.5121e-05,8.04e-06,0.0,0 STARLINK-5072,1 55758U 23028T   24171.34975239  .00000804  00000-0  75121-4 0  9994,2 55758  70.0007  28.6142 0002632 270.1679  89.9179 14.98332171 71925,6950.186,96.107,573.88,570.222,0.0
55758.0,STARLINK-5072,PAYLOAD,2024-06-19 14:48:10,14.98327508,0.0002819,70.0026,27.941,268.596,91.4876,0.00012752,1.429e-05,0.0,0 STARLINK-5072,1 55758U 23028T   24171.61679305  .00001429  00000-0  12752-3 0  9993,2 55758  70.0026  27.9410 0002819 268.5960  91.4876 14.98327508 71961,6950.201,96.107,574.025,570.106,0.0
55758.0,STARLINK-5072,PAYLOAD,2024-06-19 19:36:35,14.98319038,0.000308,70.0,27.4389,273.7524,86.3283,-3.2438e-05,-4.8e-06,0.0,0 STARLINK-5072,1 55758U 23028T   24171.81708312 -.00000480  00000-0 -32438-4 0  9998,2 55758  70.0000  27.4389 0003080 273.7524  86.3283 14.98319038 71995,6950.227,96.108,574.232,569.951,0.0
55758.0,STARLINK-5072,PAYLOAD,2024-06-19 22:48:52,14.98314502,0.0002782,70.0011,27.1021,272.9042,87.1799,-6.6483e-05,-8.86e-06,0.0,0 STARLINK-5072,1 55758U 23028T   24171.95060783 -.00000886  00000-0 -66483-4 0  9993,2 55758  70.0011  27.1021 0002782 272.9042  87.1799 14.98314502 72017,6950.241,96.108,574.039,570.172,0.0
55758.0,STARLINK-5072,PAYLOAD,2024-06-20 14:50:12,14.98335978,0.0003257,69.9999,25.4186,272.7581,87.3205,-0.00013073,-1.653e-05,0.0,0 STARLINK-5072,1 55758U 23028T   24172.61819655 -.00001653  00000-0 -13073-3 0  9996,2 55758  69.9999  25.4186 0003257 272.7581  87.3205 14.98335978 72111,6950.174,96.107,574.303,569.776,0.0
55758.0,STARLINK-5072,PAYLOAD,2024-06-20 22:50:52,14.98337738,0.0003254,70.0,24.5773,273.3256,86.753,-0.00010475,-1.343e-05,0.0,0 STARLINK-5072,1 55758U 23028T   24172.95199397 -.00001343  00000-0 -10475-3 0  9996,2 55758  70.0000  24.5773 0003254 273.3256  86.7530 14.98337738 72167,6950.169,96.107,574.296,569.772,0.0
